0 FENGYUN 1C DEB
1 35242U 99025DRA 13282.75990806  .00000436  00000-0  61726-3 0  2767
2 35242 099.9657 255.8041 0322244 263.7491 219.3808 13.43490299268895
0 FENGYUN 1C DEB
1 35242U 99025DRA 13289.15116094  .00000470  00000-0  66038-3 0  2777
2 35242 099.9677 262.1376 0321616 248.0674 171.2655 13.43497412269756
0 FENGYUN 1C DEB
1 35242U 99025DRA 13293.17397231  .00000480  00000-0  67297-3 0  2788
2 35242 099.9686 266.1241 0321252 238.1910 188.0526 13.43500617270296
0 FENGYUN 1C DEB
1 35242U 99025DRA 13296.15157558  .00000469  00000-0  65896-3 0  2796
2 35242 099.9691 269.0743 0321113 230.9082 189.5737 13.43503658270699
